{
"type": "FeatureCollection",
"name": "osm_konza",
"crs": { "type": "name", "properties": { "name": "urn:ogc:def:crs:OGC:1.3:CRS84" } },
"features": [
{ "type": "Feature", "properties": { "name": "Konza Techno City", "landuse": "commercial" }, "geometry": { "type": "Polygon", "coordinates": [ [ [ 37.1922401, -1.6547405 ], [ 37.1909356, -1.651241 ], [ 37.1874122, -1.6561583 ], [ 37.1720326, -1.6794958 ], [ 37.1698272, -1.6821459 ], [ 37.1561136, -1.7022764 ], [ 37.15645, -1.7024669 ], [ 37.1574848, -1.7027561 ], [ 37.1586361, -1.7024903 ], [ 37.1597007, -1.7023627 ], [ 37.1602448, -1.7027644 ], [ 37.1607808, -1.7034435 ], [ 37.1614983, -1.7038862 ], [ 37.1627224, -1.7048285 ], [ 37.1634091, -1.7053726 ], [ 37.1647904, -1.7057391 ], [ 37.1664941, -1.7060098 ], [ 37.1681671, -1.7071024 ], [ 37.1698731, -1.7090018 ], [ 37.1710669, -1.7098596 ], [ 37.1735971, -1.7098638 ], [ 37.1751048, -1.7104426 ], [ 37.1767505, -1.7111964 ], [ 37.1779908, -1.7126296 ], [ 37.1798135, -1.712864 ], [ 37.1826234, -1.7129668 ], [ 37.1848685, -1.714163 ], [ 37.1859147, -1.7154946 ], [ 37.1873963, -1.7168748 ], [ 37.1890646, -1.7176477 ], [ 37.1898309, -1.7188821 ], [ 37.1918951, -1.7196385 ], [ 37.1929866, -1.7199301 ], [ 37.1936081, -1.7204804 ], [ 37.1941847, -1.7204867 ], [ 37.1946519, -1.7201918 ], [ 37.195225, -1.7200025 ], [ 37.1956558, -1.7200349 ], [ 37.1963373, -1.7200423 ], [ 37.1969445, -1.720069 ], [ 37.1970811, -1.7200925 ], [ 37.1974277, -1.7201074 ], [ 37.1966448, -1.711509 ], [ 37.1961828, -1.7059128 ], [ 37.1953622, -1.6904002 ], [ 37.1922401, -1.6547405 ] ] ] } }
]
}
