{
"type": "FeatureCollection",
"name": "osm_crops",
"crs": { "type": "name", "properties": { "name": "urn:ogc:def:crs:OGC:1.3:CRS84" } },
"features": [
{ "type": "Feature", "properties": { "tile": "Kericho", "crop": "tea", "osm_id": 364554905 }, "geometry": { "type": "Polygon", "coordinates": [ [ [ 35.2631843, -0.3943406 ], [ 35.2645656, -0.3955583 ], [ 35.2664834, -0.3932463 ], [ 35.2675402, -0.3918087 ], [ 35.2663895, -0.3904622 ], [ 35.2631843, -0.3943406 ] ] ] } },
{ "type": "Feature", "properties": { "tile": "Kericho", "crop": "tea", "osm_id": 364554906 }, "geometry": { "type": "Polygon", "coordinates": [ [ [ 35.2576213, -0.3835904 ], [ 35.2569132, -0.3835261 ], [ 35.256763, -0.3833705 ], [ 35.2564838, -0.383241 ], [ 35.2561622, -0.382759 ], [ 35.2547836, -0.3809029 ], [ 35.2544241, -0.3804362 ], [ 35.2528038, -0.3796201 ], [ 35.2525678, -0.379561 ], [ 35.2521979, -0.3796348 ], [ 35.251884, -0.3797795 ], [ 35.2510522, -0.3801874 ], [ 35.2511131, -0.3803982 ], [ 35.2506634, -0.3805805 ], [ 35.2505695, -0.3803239 ], [ 35.2489149, -0.3807742 ], [ 35.2485018, -0.3810424 ], [ 35.2471339, -0.3824371 ], [ 35.2474428, -0.3828099 ], [ 35.2461594, -0.3838354 ], [ 35.2463249, -0.3840403 ], [ 35.2453956, -0.3846893 ], [ 35.2465814, -0.3857147 ], [ 35.2394199, -0.3952041 ], [ 35.238862, -0.3943298 ], [ 35.2386957, -0.3943083 ], [ 35.2383574, -0.3946454 ], [ 35.2379929, -0.3943941 ], [ 35.2367108, -0.3961536 ], [ 35.2360242, -0.3969368 ], [ 35.2353805, -0.3975322 ], [ 35.2355521, -0.3977522 ], [ 35.2352678, -0.3980472 ], [ 35.2337226, -0.3990281 ], [ 35.2328244, -0.3996808 ], [ 35.2318909, -0.4003137 ], [ 35.2311319, -0.4007938 ], [ 35.2308687, -0.4009163 ], [ 35.2304023, -0.4013302 ], [ 35.2299249, -0.4020704 ], [ 35.2297961, -0.4025425 ], [ 35.229324, -0.403551 ], [ 35.2288573, -0.4045165 ], [ 35.2312606, -0.4044629 ], [ 35.2315122, -0.404113 ], [ 35.2318397, -0.4036574 ], [ 35.233154, -0.4040759 ], [ 35.23339, -0.4039954 ], [ 35.2344256, -0.4033847 ], [ 35.2347045, -0.4033632 ], [ 35.2360296, -0.4055197 ], [ 35.2355197, -0.4061357 ], [ 35.2351978, -0.406463 ], [ 35.2347743, -0.406909 ], [ 35.2342805, -0.4074017 ], [ 35.2333795, -0.4082179 ], [ 35.2328163, -0.4087168 ], [ 35.232076, -0.4096716 ], [ 35.2316254, -0.4101222 ], [ 35.2314323, -0.4105674 ], [ 35.2313196, -0.411238 ], [ 35.2311211, -0.4126542 ], [ 35.2322691, -0.4143385 ], [ 35.2329182, -0.4133354 ], [ 35.2341949, -0.413212 ], [ 35.2344953, -0.412799 ], [ 35.2368074, -0.4127668 ], [ 35.2378856, -0.4104226 ], [ 35.2367803, -0.4085229 ], [ 35.2374514, -0.407335 ], [ 35.2375799, -0.4071075 ], [ 35.2383092, -0.4082546 ], [ 35.2386635, -0.4080248 ], [ 35.2391353, -0.4088286 ], [ 35.2394893, -0.4086623 ], [ 35.2396452, -0.4086163 ], [ 35.2397632, -0.4086027 ], [ 35.2399775, -0.4089842 ], [ 35.2421823, -0.4084746 ], [ 35.2428048, -0.408706 ], [ 35.2430138, -0.4083405 ], [ 35.2429604, -0.407939 ], [ 35.242708, -0.4069565 ], [ 35.2428799, -0.4068715 ], [ 35.2450579, -0.4067213 ], [ 35.2459537, -0.4061044 ], [ 35.2465921, -0.4055679 ], [ 35.246962, -0.4067848 ], [ 35.2466082, -0.4071504 ], [ 35.2460074, -0.407365 ], [ 35.2460396, -0.4076761 ], [ 35.2453744, -0.4078907 ], [ 35.2454387, -0.4080248 ], [ 35.2447146, -0.4083252 ], [ 35.2440601, -0.4077512 ], [ 35.2431052, -0.4085076 ], [ 35.2429282, -0.4087221 ], [ 35.2433034, -0.4088447 ], [ 35.2434003, -0.4085022 ], [ 35.2436092, -0.4083351 ], [ 35.2438292, -0.4083619 ], [ 35.2442583, -0.4082064 ], [ 35.2449181, -0.4086677 ], [ 35.2463933, -0.4079489 ], [ 35.2471554, -0.4076064 ], [ 35.2475842, -0.407214 ], [ 35.2478527, -0.4048974 ], [ 35.2478742, -0.4044575 ], [ 35.2473163, -0.4043342 ], [ 35.2474632, -0.4040556 ], [ 35.2475738, -0.403846 ], [ 35.2477157, -0.4035483 ], [ 35.24796, -0.403036 ], [ 35.2482663, -0.4023841 ], [ 35.2483784, -0.4021455 ], [ 35.2485997, -0.4018922 ], [ 35.248979, -0.4014581 ], [ 35.2494352, -0.4008098 ], [ 35.2495801, -0.4002627 ], [ 35.2495211, -0.3995706 ], [ 35.2491777, -0.3992542 ], [ 35.2487915, -0.3987768 ], [ 35.2487432, -0.3983315 ], [ 35.2489039, -0.3980142 ], [ 35.2487969, -0.3969261 ], [ 35.2485394, -0.3966203 ], [ 35.2470052, -0.3958639 ], [ 35.2464365, -0.3956065 ], [ 35.2460339, -0.3953911 ], [ 35.2455568, -0.3953222 ], [ 35.2451273, -0.3950263 ], [ 35.2453154, -0.3947965 ], [ 35.2456211, -0.3945926 ], [ 35.2454978, -0.3943727 ], [ 35.2452671, -0.3943298 ], [ 35.2450737, -0.3944362 ], [ 35.2442532, -0.3935627 ], [ 35.2442478, -0.3931764 ], [ 35.2441781, -0.392817 ], [ 35.2443015, -0.3926239 ], [ 35.2445751, -0.3927258 ], [ 35.245133, -0.3934876 ], [ 35.2458464, -0.3939596 ], [ 35.2461251, -0.394329 ], [ 35.2466616, -0.3950907 ], [ 35.247268, -0.3953543 ], [ 35.2480727, -0.3955475 ], [ 35.248405, -0.3953053 ], [ 35.2488773, -0.3954563 ], [ 35.2492475, -0.3958639 ], [ 35.2493816, -0.3965077 ], [ 35.2494191, -0.3979346 ], [ 35.2495908, -0.3986373 ], [ 35.249966, -0.3989422 ], [ 35.2503737, -0.3990978 ], [ 35.2505725, -0.3990396 ], [ 35.2505942, -0.3989842 ], [ 35.2507707, -0.3985346 ], [ 35.2508032, -0.3974089 ], [ 35.2502077, -0.3972426 ], [ 35.2501058, -0.3969422 ], [ 35.250138, -0.3955314 ], [ 35.2498268, -0.3952041 ], [ 35.2500841, -0.3948547 ], [ 35.2497303, -0.3945229 ], [ 35.2493709, -0.3948876 ], [ 35.2488183, -0.3943029 ], [ 35.2494728, -0.3936485 ], [ 35.2499231, -0.3941466 ], [ 35.2498537, -0.3923772 ], [ 35.2504116, -0.3923986 ], [ 35.2506583, -0.3912399 ], [ 35.2515003, -0.3913089 ], [ 35.2514737, -0.3909663 ], [ 35.2517202, -0.3906061 ], [ 35.2523428, -0.3904836 ], [ 35.2528631, -0.3895448 ], [ 35.2532493, -0.3889494 ], [ 35.2535122, -0.3884827 ], [ 35.2533835, -0.3879248 ], [ 35.2527987, -0.3874366 ], [ 35.2524447, -0.3871523 ], [ 35.2519938, -0.3866795 ], [ 35.2514898, -0.3859883 ], [ 35.2511894, -0.3853285 ], [ 35.2510765, -0.3847751 ], [ 35.2504706, -0.3840893 ], [ 35.2498322, -0.3833705 ], [ 35.2491134, -0.3829038 ], [ 35.2493119, -0.3827912 ], [ 35.2498319, -0.3825758 ], [ 35.2504277, -0.3828126 ], [ 35.2516293, -0.3846365 ], [ 35.2521333, -0.3853974 ], [ 35.2523642, -0.3862136 ], [ 35.2529382, -0.386927 ], [ 35.2537909, -0.3875914 ], [ 35.2546816, -0.3873776 ], [ 35.255427, -0.3869316 ], [ 35.2555719, -0.3865883 ], [ 35.255717, -0.3865623 ], [ 35.2560171, -0.3867331 ], [ 35.2568274, -0.3857844 ], [ 35.2571171, -0.3851407 ], [ 35.2576213, -0.3849047 ], [ 35.2578037, -0.3845667 ], [ 35.2577715, -0.3841859 ], [ 35.2576857, -0.3838587 ], [ 35.2576213, -0.3835904 ] ] ] } },
{ "type": "Feature", "properties": { "tile": "Kericho", "crop": "tea", "osm_id": 364609836 }, "geometry": { "type": "Polygon", "coordinates": [ [ [ 35.2949575, -0.3814554 ], [ 35.2961932, -0.3804137 ], [ 35.2974198, -0.3793044 ], [ 35.2982317, -0.3786167 ], [ 35.2991383, -0.3778174 ], [ 35.2996729, -0.3773196 ], [ 35.3006028, -0.3765514 ], [ 35.3011875, -0.3760042 ], [ 35.3022049, -0.3750827 ], [ 35.3027754, -0.3746149 ], [ 35.3027378, -0.3750011 ], [ 35.302398, -0.3753133 ], [ 35.3018401, -0.375721 ], [ 35.3008208, -0.376649 ], [ 35.2999357, -0.3773625 ], [ 35.2990345, -0.3781564 ], [ 35.2987019, -0.3785212 ], [ 35.2989701, -0.3788484 ], [ 35.2992008, -0.3790683 ], [ 35.2990399, -0.3799266 ], [ 35.2986483, -0.3800071 ], [ 35.2986662, -0.3803386 ], [ 35.2990774, -0.3804309 ], [ 35.2994207, -0.3804631 ], [ 35.2996139, -0.3804523 ], [ 35.2996407, -0.380109 ], [ 35.3000269, -0.3800876 ], [ 35.3000859, -0.3800285 ], [ 35.3003756, -0.3800554 ], [ 35.3004687, -0.3801616 ], [ 35.3008584, -0.3803129 ], [ 35.3004775, -0.3804309 ], [ 35.3000698, -0.380624 ], [ 35.2995495, -0.380742 ], [ 35.299013, -0.38086 ], [ 35.2984712, -0.3809619 ], [ 35.2981083, -0.3810413 ], [ 35.297688, -0.3810799 ], [ 35.2972696, -0.3810102 ], [ 35.2968638, -0.3810842 ], [ 35.2963791, -0.381257 ], [ 35.2960036, -0.3814501 ], [ 35.2955656, -0.3817709 ], [ 35.2953242, -0.3817548 ], [ 35.2951292, -0.3816593 ], [ 35.2949575, -0.3814554 ] ] ] } },
{ "type": "Feature", "properties": { "tile": "Kericho", "crop": "tea", "osm_id": 364609837 }, "geometry": { "type": "Polygon", "coordinates": [ [ [ 35.2886331, -0.3956254 ], [ 35.2899259, -0.3968726 ], [ 35.29109, -0.3979615 ], [ 35.2916881, -0.3984953 ], [ 35.2919081, -0.3986106 ], [ 35.2924445, -0.3985462 ], [ 35.2931526, -0.3983451 ], [ 35.2933082, -0.3982163 ], [ 35.2935496, -0.3980286 ], [ 35.2936274, -0.3980178 ], [ 35.2938259, -0.3980366 ], [ 35.2940901, -0.3979629 ], [ 35.2942309, -0.3978918 ], [ 35.2944884, -0.3978998 ], [ 35.2945822, -0.3979535 ], [ 35.2948049, -0.3980017 ], [ 35.2949846, -0.3979374 ], [ 35.2951938, -0.3976343 ], [ 35.2954674, -0.3973017 ], [ 35.2956122, -0.3970952 ], [ 35.2958778, -0.396607 ], [ 35.2959368, -0.3964837 ], [ 35.296146, -0.3961913 ], [ 35.2964169, -0.3959392 ], [ 35.2970257, -0.3956441 ], [ 35.2967334, -0.3949414 ], [ 35.2964517, -0.3942441 ], [ 35.2962318, -0.3943031 ], [ 35.2960709, -0.3944264 ], [ 35.2957785, -0.3949092 ], [ 35.2955613, -0.395266 ], [ 35.2953628, -0.3954591 ], [ 35.2953628, -0.3956227 ], [ 35.2951884, -0.395679 ], [ 35.2951455, -0.3955985 ], [ 35.2940163, -0.3963817 ], [ 35.2930534, -0.3970389 ], [ 35.2928871, -0.3971569 ], [ 35.2928013, -0.3971327 ], [ 35.2926376, -0.3968323 ], [ 35.2922675, -0.3967787 ], [ 35.2917525, -0.3967304 ], [ 35.2908862, -0.396481 ], [ 35.2907011, -0.3963844 ], [ 35.2907145, -0.3962449 ], [ 35.2908191, -0.3963066 ], [ 35.2909639, -0.3963415 ], [ 35.2910149, -0.3964729 ], [ 35.2913904, -0.3966037 ], [ 35.2916613, -0.3966741 ], [ 35.2920972, -0.3967291 ], [ 35.2925625, -0.396772 ], [ 35.2925827, -0.3967371 ], [ 35.2923627, -0.3963616 ], [ 35.2921213, -0.3959271 ], [ 35.2920288, -0.3957581 ], [ 35.2919054, -0.3955234 ], [ 35.2918397, -0.3953813 ], [ 35.2918021, -0.395223 ], [ 35.2914803, -0.3949106 ], [ 35.2910551, -0.3944895 ], [ 35.2906005, -0.3940536 ], [ 35.2903846, -0.3938619 ], [ 35.2903283, -0.3939007 ], [ 35.2897704, -0.3945069 ], [ 35.2891722, -0.3951667 ], [ 35.2890462, -0.3953598 ], [ 35.2889067, -0.3955154 ], [ 35.2888021, -0.3955932 ], [ 35.2886331, -0.3956254 ] ] ] } },
{ "type": "Feature", "properties": { "tile": "Kericho", "crop": "tea", "osm_id": 364613300 }, "geometry": { "type": "Polygon", "coordinates": [ [ [ 35.2965577, -0.3969316 ], [ 35.2966301, -0.3968028 ], [ 35.2968273, -0.3965494 ], [ 35.2969842, -0.3964474 ], [ 35.2972242, -0.3963281 ], [ 35.2973127, -0.3962181 ], [ 35.297408, -0.3960947 ], [ 35.2977312, -0.3958212 ], [ 35.2980014, -0.3955456 ], [ 35.2985734, -0.3950246 ], [ 35.2986082, -0.3949307 ], [ 35.2990106, -0.39378 ], [ 35.2997053, -0.3936781 ], [ 35.2998126, -0.3938498 ], [ 35.299944, -0.3943808 ], [ 35.2992707, -0.3947027 ], [ 35.2992225, -0.3947537 ], [ 35.2987665, -0.3961028 ], [ 35.2988335, -0.396261 ], [ 35.2991983, -0.3963978 ], [ 35.2996194, -0.3965668 ], [ 35.2997777, -0.3965909 ], [ 35.2994585, -0.3973714 ], [ 35.2987766, -0.3972829 ], [ 35.2982951, -0.3972152 ], [ 35.2976547, -0.3971227 ], [ 35.2972866, -0.3970623 ], [ 35.2965986, -0.3969463 ], [ 35.2965577, -0.3969316 ] ] ] } },
{ "type": "Feature", "properties": { "tile": "Kericho", "crop": "tea", "osm_id": 1555115870 }, "geometry": { "type": "Polygon", "coordinates": [ [ [ 35.295741, -0.4008515 ], [ 35.2956203, -0.4009213 ], [ 35.2948894, -0.401278 ], [ 35.2944481, -0.4015086 ], [ 35.2938889, -0.4017138 ], [ 35.293563, -0.4018117 ], [ 35.2930386, -0.4019941 ], [ 35.292985, -0.4018077 ], [ 35.2929515, -0.4014765 ], [ 35.2928697, -0.4009494 ], [ 35.2927959, -0.40035 ], [ 35.2928281, -0.4003017 ], [ 35.2930024, -0.4001475 ], [ 35.2930681, -0.4000885 ], [ 35.2931365, -0.3999208 ], [ 35.2932505, -0.3998055 ], [ 35.2933364, -0.3997599 ], [ 35.2934933, -0.3996915 ], [ 35.2937722, -0.3996446 ], [ 35.2942228, -0.3996137 ], [ 35.2945045, -0.3995829 ], [ 35.2946024, -0.3995359 ], [ 35.2946976, -0.3995024 ], [ 35.2948116, -0.3995078 ], [ 35.294888, -0.3995292 ], [ 35.2949752, -0.3995292 ], [ 35.2950463, -0.3995145 ], [ 35.2951241, -0.3994742 ], [ 35.2952582, -0.3993535 ], [ 35.2953306, -0.3992892 ], [ 35.295399, -0.3992583 ], [ 35.2954835, -0.3992758 ], [ 35.295741, -0.4008515 ] ] ] } },
{ "type": "Feature", "properties": { "tile": "Kericho", "crop": "tea", "osm_id": 1558913334 }, "geometry": { "type": "Polygon", "coordinates": [ [ [ 35.253641, -0.3960599 ], [ 35.2536222, -0.3958855 ], [ 35.2535981, -0.3956227 ], [ 35.2535713, -0.395443 ], [ 35.2535981, -0.3953652 ], [ 35.2536759, -0.3952204 ], [ 35.2540433, -0.3950997 ], [ 35.2547058, -0.3947912 ], [ 35.2553228, -0.3952633 ], [ 35.2551712, -0.3954685 ], [ 35.2549124, -0.395852 ], [ 35.2545087, -0.3963978 ], [ 35.2543987, -0.3963147 ], [ 35.2542981, -0.3962637 ], [ 35.2541386, -0.3962181 ], [ 35.2540635, -0.3962087 ], [ 35.2538154, -0.3961363 ], [ 35.2537349, -0.3961323 ], [ 35.2536692, -0.3961068 ], [ 35.253641, -0.3960599 ] ] ] } },
{ "type": "Feature", "properties": { "tile": "Kericho", "crop": "tea", "osm_id": 1558913366 }, "geometry": { "type": "Polygon", "coordinates": [ [ [ 35.2554218, -0.3952471 ], [ 35.2554515, -0.3953022 ], [ 35.256063, -0.3958145 ], [ 35.2566826, -0.3963495 ], [ 35.2568758, -0.3964863 ], [ 35.2569602, -0.396481 ], [ 35.2570313, -0.3964287 ], [ 35.2573438, -0.3960518 ], [ 35.2581538, -0.3950635 ], [ 35.2581739, -0.3950112 ], [ 35.2581096, -0.3949495 ], [ 35.2578977, -0.3947134 ], [ 35.25773, -0.3944318 ], [ 35.2576201, -0.3943353 ], [ 35.2571869, -0.3939758 ], [ 35.2567778, -0.393641 ], [ 35.2554218, -0.3952471 ] ] ] } },
{ "type": "Feature", "properties": { "tile": "Kericho", "crop": "tea", "osm_id": 1558913367 }, "geometry": { "type": "Polygon", "coordinates": [ [ [ 35.2598501, -0.3930772 ], [ 35.2594024, -0.3936231 ], [ 35.2600394, -0.3941676 ], [ 35.2600797, -0.3941435 ], [ 35.2601346, -0.3941891 ], [ 35.2601159, -0.3942347 ], [ 35.2605222, -0.394582 ], [ 35.2605738, -0.3946169 ], [ 35.2606256, -0.3946276 ], [ 35.2617374, -0.3932689 ], [ 35.2617211, -0.3931968 ], [ 35.260577, -0.392235 ], [ 35.2598501, -0.3930772 ] ] ] } },
{ "type": "Feature", "properties": { "tile": "Kericho", "crop": "tea", "osm_id": 1558913368 }, "geometry": { "type": "Polygon", "coordinates": [ [ [ 35.2594198, -0.3960929 ], [ 35.2594037, -0.3960773 ], [ 35.2582115, -0.3950648 ], [ 35.2579755, -0.3953652 ], [ 35.2571185, -0.3964327 ], [ 35.2572325, -0.3965413 ], [ 35.2576134, -0.3968618 ], [ 35.257844, -0.3970523 ], [ 35.2580479, -0.3972481 ], [ 35.258288, -0.3974505 ], [ 35.2594198, -0.3960929 ] ] ] } },
{ "type": "Feature", "properties": { "tile": "Kericho", "crop": "tea", "osm_id": 1558913369 }, "geometry": { "type": "Polygon", "coordinates": [ [ [ 35.2578722, -0.3922718 ], [ 35.2578829, -0.3923102 ], [ 35.2579647, -0.3923827 ], [ 35.2589089, -0.3932195 ], [ 35.2593876, -0.3936017 ], [ 35.2599429, -0.3929218 ], [ 35.2599976, -0.392817 ], [ 35.2592788, -0.3921787 ], [ 35.2598413, -0.3915687 ], [ 35.2593638, -0.3911778 ], [ 35.2590977, -0.3914786 ], [ 35.2587316, -0.3911595 ], [ 35.2579162, -0.3922149 ], [ 35.2578722, -0.3922718 ] ] ] } },
{ "type": "Feature", "properties": { "tile": "Kericho", "crop": "tea", "osm_id": 1558913385 }, "geometry": { "type": "Polygon", "coordinates": [ [ [ 35.254204, -0.3949681 ], [ 35.2546519, -0.3947535 ], [ 35.2542435, -0.3944869 ], [ 35.2541631, -0.394326 ], [ 35.2542631, -0.3939784 ], [ 35.2544187, -0.3936458 ], [ 35.2545742, -0.39345 ], [ 35.2545554, -0.3932784 ], [ 35.2542095, -0.3929591 ], [ 35.2540826, -0.392706 ], [ 35.253893, -0.3925193 ], [ 35.2536677, -0.3923476 ], [ 35.253158, -0.3924898 ], [ 35.2530561, -0.3926427 ], [ 35.253117, -0.3929473 ], [ 35.2531126, -0.3931283 ], [ 35.2530633, -0.393288 ], [ 35.253066, -0.3935321 ], [ 35.2531465, -0.3939505 ], [ 35.2531867, -0.3944869 ], [ 35.2534209, -0.3949386 ], [ 35.253614, -0.3951317 ], [ 35.2538152, -0.3951371 ], [ 35.2540512, -0.3950566 ], [ 35.254204, -0.3949681 ] ] ] } },
{ "type": "Feature", "properties": { "tile": "Kericho", "crop": "tea", "osm_id": 1559151986 }, "geometry": { "type": "Polygon", "coordinates": [ [ [ 35.2436731, -0.3606994 ], [ 35.2446899, -0.3601472 ], [ 35.2447822, -0.3604017 ], [ 35.2441751, -0.3606959 ], [ 35.2442439, -0.3609161 ], [ 35.2438879, -0.3610287 ], [ 35.2438101, -0.3609328 ], [ 35.2436731, -0.3606994 ] ] ] } },
{ "type": "Feature", "properties": { "tile": "Kericho", "crop": "tea", "osm_id": 1559253856 }, "geometry": { "type": "Polygon", "coordinates": [ [ [ 35.2995282, -0.3974439 ], [ 35.2994558, -0.3976102 ], [ 35.2993968, -0.3977322 ], [ 35.2992935, -0.3979106 ], [ 35.2992252, -0.398046 ], [ 35.299134, -0.3981506 ], [ 35.2990857, -0.398219 ], [ 35.2987062, -0.3985382 ], [ 35.2978572, -0.3992503 ], [ 35.2981134, -0.3993012 ], [ 35.2988912, -0.3988252 ], [ 35.2994827, -0.3984752 ], [ 35.2998004, -0.3982834 ], [ 35.2999212, -0.3982096 ], [ 35.300011, -0.3981519 ], [ 35.3002068, -0.3980447 ], [ 35.3003329, -0.3979682 ], [ 35.3005435, -0.3978435 ], [ 35.3006199, -0.3977899 ], [ 35.3007393, -0.3977282 ], [ 35.3008814, -0.397637 ], [ 35.3010303, -0.3975364 ], [ 35.3007419, -0.3975297 ], [ 35.3003731, -0.3975015 ], [ 35.3000218, -0.3974801 ], [ 35.2997871, -0.3974626 ], [ 35.2995282, -0.3974439 ] ] ] } },
{ "type": "Feature", "properties": { "tile": "Kericho", "crop": "tea", "osm_id": 1559253857 }, "geometry": { "type": "Polygon", "coordinates": [ [ [ 35.3000566, -0.3962423 ], [ 35.2999842, -0.3964246 ], [ 35.2998635, -0.3966929 ], [ 35.2997348, -0.397004 ], [ 35.2996087, -0.3972507 ], [ 35.2995604, -0.3973875 ], [ 35.2999654, -0.3974144 ], [ 35.3002766, -0.3974331 ], [ 35.3006065, -0.3974465 ], [ 35.3010115, -0.3974707 ], [ 35.3011724, -0.3974895 ], [ 35.3012019, -0.3974358 ], [ 35.3010544, -0.3973875 ], [ 35.3010195, -0.3973124 ], [ 35.3010491, -0.3971998 ], [ 35.3011228, -0.3971529 ], [ 35.3012287, -0.3971663 ], [ 35.3012744, -0.3968538 ], [ 35.3013173, -0.3964917 ], [ 35.301328, -0.3963978 ], [ 35.3010061, -0.3963522 ], [ 35.3005958, -0.396312 ], [ 35.3000566, -0.3962423 ] ] ] } },
{ "type": "Feature", "properties": { "tile": "Kericho", "crop": "tea", "osm_id": 1559404758 }, "geometry": { "type": "Polygon", "coordinates": [ [ [ 35.2618821, -0.3932289 ], [ 35.263128, -0.3943084 ], [ 35.2663493, -0.3904247 ], [ 35.2652644, -0.3891252 ], [ 35.2618821, -0.3932289 ] ] ] } },
{ "type": "Feature", "properties": { "tile": "Kericho", "crop": "tea", "osm_id": 1559405269 }, "geometry": { "type": "Polygon", "coordinates": [ [ [ 35.2590993, -0.3907546 ], [ 35.2605879, -0.3920715 ], [ 35.2624319, -0.3898856 ], [ 35.263989, -0.388 ], [ 35.2624547, -0.3867019 ], [ 35.2613202, -0.3880832 ], [ 35.2598208, -0.3898641 ], [ 35.2590993, -0.3907546 ] ] ] } },
{ "type": "Feature", "properties": { "tile": "Kericho", "crop": "tea", "osm_id": 1559405270 }, "geometry": { "type": "Polygon", "coordinates": [ [ [ 35.2606657, -0.3921144 ], [ 35.2618593, -0.3931095 ], [ 35.2637918, -0.3907747 ], [ 35.2652147, -0.3890447 ], [ 35.2640265, -0.3880403 ], [ 35.2618539, -0.3906875 ], [ 35.2606657, -0.3921144 ] ] ] } },
{ "type": "Feature", "properties": { "tile": "Kericho", "crop": "tea", "osm_id": 1559409318 }, "geometry": { "type": "Polygon", "coordinates": [ [ [ 35.2687284, -0.3903281 ], [ 35.26912, -0.3897568 ], [ 35.2694634, -0.388928 ], [ 35.2695975, -0.3885955 ], [ 35.2702439, -0.3873456 ], [ 35.2704504, -0.3868038 ], [ 35.2707562, -0.3859589 ], [ 35.2709547, -0.3855056 ], [ 35.2713275, -0.3850148 ], [ 35.2720249, -0.3844462 ], [ 35.2726793, -0.3840546 ], [ 35.2731997, -0.3837408 ], [ 35.2735162, -0.3835047 ], [ 35.2739131, -0.3829013 ], [ 35.2742954, -0.3820524 ], [ 35.2745502, -0.3816031 ], [ 35.2747259, -0.3813161 ], [ 35.2750504, -0.3809621 ], [ 35.2756137, -0.3816111 ], [ 35.2753562, -0.3821664 ], [ 35.2749512, -0.3830112 ], [ 35.2744389, -0.3839661 ], [ 35.2742189, -0.3844542 ], [ 35.2740875, -0.3846795 ], [ 35.2729529, -0.3851543 ], [ 35.2725318, -0.385342 ], [ 35.272041, -0.3857363 ], [ 35.2715582, -0.3863854 ], [ 35.2714106, -0.3865678 ], [ 35.2713838, -0.3869379 ], [ 35.2710271, -0.3884238 ], [ 35.2705926, -0.3890407 ], [ 35.2701312, -0.3896737 ], [ 35.2695626, -0.3904247 ], [ 35.2691871, -0.390886 ], [ 35.2687284, -0.3903281 ] ] ] } },
{ "type": "Feature", "properties": { "tile": "Kericho", "crop": "tea", "osm_id": 1559409319 }, "geometry": { "type": "Polygon", "coordinates": [ [ [ 35.2640158, -0.3879571 ], [ 35.2624869, -0.3866643 ], [ 35.2626666, -0.3864202 ], [ 35.2631119, -0.3858758 ], [ 35.2635853, -0.3853125 ], [ 35.2647105, -0.3839473 ], [ 35.2662474, -0.3852803 ], [ 35.2656546, -0.3859576 ], [ 35.2651678, -0.3865463 ], [ 35.2640158, -0.3879571 ] ] ] } },
{ "type": "Feature", "properties": { "tile": "Kericho", "crop": "tea", "osm_id": 1559409320 }, "geometry": { "type": "Polygon", "coordinates": [ [ [ 35.2640614, -0.3879947 ], [ 35.2652496, -0.3890005 ], [ 35.2666068, -0.387359 ], [ 35.2674678, -0.3863156 ], [ 35.2662769, -0.3853125 ], [ 35.2648258, -0.3870747 ], [ 35.2640614, -0.3879947 ] ] ] } },
{ "type": "Feature", "properties": { "tile": "Kericho", "crop": "tea", "osm_id": 1559409322 }, "geometry": { "type": "Polygon", "coordinates": [ [ [ 35.2653837, -0.3890702 ], [ 35.2663788, -0.3902798 ], [ 35.26647, -0.3901726 ], [ 35.2665102, -0.3902047 ], [ 35.2671996, -0.3893974 ], [ 35.2677575, -0.3887296 ], [ 35.2683154, -0.3880778 ], [ 35.2689564, -0.3873617 ], [ 35.2695706, -0.3867072 ], [ 35.2701661, -0.3860394 ], [ 35.2705604, -0.3856102 ], [ 35.2700427, -0.3858999 ], [ 35.2695465, -0.3860421 ], [ 35.2684441, -0.3861842 ], [ 35.2676475, -0.3863183 ], [ 35.2673605, -0.386616 ], [ 35.2666095, -0.3875226 ], [ 35.2658477, -0.3884533 ], [ 35.2654132, -0.388979 ], [ 35.2653837, -0.3890702 ] ] ] } },
{ "type": "Feature", "properties": { "tile": "Kericho", "crop": "tea", "osm_id": 1559409323 }, "geometry": { "type": "Polygon", "coordinates": [ [ [ 35.2675724, -0.3917416 ], [ 35.2682671, -0.3908082 ], [ 35.2688894, -0.3899687 ], [ 35.2690718, -0.3896951 ], [ 35.269289, -0.3891104 ], [ 35.2695009, -0.3886008 ], [ 35.2697396, -0.388177 ], [ 35.2699783, -0.3877506 ], [ 35.2701768, -0.3873509 ], [ 35.2703243, -0.3869969 ], [ 35.2706757, -0.385975 ], [ 35.2708259, -0.3855727 ], [ 35.2710378, -0.3852776 ], [ 35.2708045, -0.3854359 ], [ 35.2706918, -0.3855351 ], [ 35.2700427, -0.3862271 ], [ 35.2694258, -0.386903 ], [ 35.268825, -0.3875602 ], [ 35.2682564, -0.38822 ], [ 35.2676743, -0.3888959 ], [ 35.2670306, -0.3896764 ], [ 35.2666631, -0.3901377 ], [ 35.2664459, -0.39043 ], [ 35.26739, -0.3915592 ], [ 35.2675724, -0.3917416 ] ] ] } },
{ "type": "Feature", "properties": { "tile": "Kericho", "crop": "tea", "osm_id": 1559409324 }, "geometry": { "type": "Polygon", "coordinates": [ [ [ 35.2672023, -0.3977818 ], [ 35.2667356, -0.3974009 ], [ 35.2661669, -0.3969128 ], [ 35.2654374, -0.3962825 ], [ 35.26463, -0.3955959 ], [ 35.265322, -0.3947403 ], [ 35.2657378, -0.3942414 ], [ 35.2670681, -0.3953867 ], [ 35.267559, -0.3958238 ], [ 35.2674141, -0.3968189 ], [ 35.2673954, -0.397122 ], [ 35.267323, -0.3974868 ], [ 35.2672505, -0.3977174 ], [ 35.2672023, -0.3977818 ] ] ] } },
{ "type": "Feature", "properties": { "tile": "Kericho", "crop": "tea", "osm_id": 1559409325 }, "geometry": { "type": "Polygon", "coordinates": [ [ [ 35.2675992, -0.3957836 ], [ 35.2657753, -0.3942172 ], [ 35.2666819, -0.3931176 ], [ 35.2676046, -0.3918677 ], [ 35.2686346, -0.3903925 ], [ 35.2691281, -0.3909343 ], [ 35.268074, -0.3924256 ], [ 35.2673203, -0.3935199 ], [ 35.2678835, -0.3941314 ], [ 35.2672934, -0.395215 ], [ 35.2676797, -0.3956012 ], [ 35.2675992, -0.3957836 ] ] ] } },
{ "type": "Feature", "properties": { "tile": "Kericho", "crop": "tea", "osm_id": 1559413841 }, "geometry": { "type": "Polygon", "coordinates": [ [ [ 35.2674447, -0.3838142 ], [ 35.2663895, -0.3851013 ], [ 35.2648392, -0.3837555 ], [ 35.2656077, -0.3828503 ], [ 35.2659181, -0.3824842 ], [ 35.2674447, -0.3838142 ] ] ] } },
{ "type": "Feature", "properties": { "tile": "Kericho", "crop": "tea", "osm_id": 1559413842 }, "geometry": { "type": "Polygon", "coordinates": [ [ [ 35.2675053, -0.3838668 ], [ 35.2671359, -0.3843 ], [ 35.2664378, -0.3851301 ], [ 35.2676173, -0.3861581 ], [ 35.2687063, -0.3848747 ], [ 35.2675053, -0.3838668 ] ] ] } },
{ "type": "Feature", "properties": { "tile": "Kericho", "crop": "tea", "osm_id": 1559413843 }, "geometry": { "type": "Polygon", "coordinates": [ [ [ 35.2687308, -0.3848411 ], [ 35.2685419, -0.3846916 ], [ 35.2682213, -0.3844227 ], [ 35.2678453, -0.3840975 ], [ 35.2675214, -0.3838085 ], [ 35.2677191, -0.3835671 ], [ 35.2682614, -0.3829113 ], [ 35.2685432, -0.3825839 ], [ 35.2687365, -0.3823667 ], [ 35.2688585, -0.3822187 ], [ 35.2698335, -0.3810385 ], [ 35.2700514, -0.3812316 ], [ 35.2706757, -0.3817818 ], [ 35.2710154, -0.3820906 ], [ 35.2709416, -0.3821798 ], [ 35.2706932, -0.3824936 ], [ 35.2694399, -0.3839902 ], [ 35.2687308, -0.3848411 ] ] ] } },
{ "type": "Feature", "properties": { "tile": "Kericho", "crop": "tea", "osm_id": 1559413844 }, "geometry": { "type": "Polygon", "coordinates": [ [ [ 35.2679251, -0.3832546 ], [ 35.2686228, -0.3824285 ], [ 35.2690305, -0.3819459 ], [ 35.2698212, -0.3810097 ], [ 35.2686193, -0.3799946 ], [ 35.2674329, -0.380714 ], [ 35.266187, -0.3821275 ], [ 35.2659275, -0.3824219 ], [ 35.2674805, -0.3837908 ], [ 35.2679251, -0.3832546 ] ] ] } },
{ "type": "Feature", "properties": { "tile": "Kericho", "crop": "tea", "osm_id": 1559417211 }, "geometry": { "type": "Polygon", "coordinates": [ [ [ 35.2734629, -0.3791516 ], [ 35.2734096, -0.3790551 ], [ 35.2732128, -0.3788281 ], [ 35.2730937, -0.3786802 ], [ 35.2728121, -0.3783543 ], [ 35.2724386, -0.377948 ], [ 35.269859, -0.3810023 ], [ 35.2710298, -0.3820483 ], [ 35.2734629, -0.3791516 ] ] ] } },
{ "type": "Feature", "properties": { "tile": "Kericho", "crop": "tea", "osm_id": 1559417212 }, "geometry": { "type": "Polygon", "coordinates": [ [ [ 35.2710529, -0.3821251 ], [ 35.2716071, -0.3828416 ], [ 35.2725583, -0.3839446 ], [ 35.2727075, -0.3838709 ], [ 35.2728423, -0.3837877 ], [ 35.2731527, -0.3835973 ], [ 35.2733392, -0.3834484 ], [ 35.2736168, -0.3831561 ], [ 35.2737804, -0.382861 ], [ 35.2738421, -0.3827028 ], [ 35.2739038, -0.382562 ], [ 35.274066, -0.3822254 ], [ 35.2741505, -0.382049 ], [ 35.2742035, -0.3819484 ], [ 35.2742585, -0.3818525 ], [ 35.2743436, -0.3816816 ], [ 35.2744221, -0.3815548 ], [ 35.2746052, -0.3812853 ], [ 35.2747071, -0.3811297 ], [ 35.274744, -0.3809594 ], [ 35.2748922, -0.3807636 ], [ 35.2744952, -0.380313 ], [ 35.2744006, -0.380207 ], [ 35.2743483, -0.3801896 ], [ 35.2743155, -0.3800796 ], [ 35.274066, -0.3798154 ], [ 35.2739815, -0.3798141 ], [ 35.2738736, -0.3796579 ], [ 35.2738541, -0.3795378 ], [ 35.273768, -0.3794567 ], [ 35.2737241, -0.3794446 ], [ 35.2736872, -0.3793796 ], [ 35.273656, -0.3793514 ], [ 35.2735879, -0.3792673 ], [ 35.2735645, -0.3792599 ], [ 35.2735205, -0.3791945 ], [ 35.2722079, -0.3807287 ], [ 35.2721192, -0.3808385 ], [ 35.2716758, -0.3813791 ], [ 35.2712705, -0.3818586 ], [ 35.2710529, -0.3821251 ] ] ] } },
{ "type": "Feature", "properties": { "tile": "Kericho", "crop": "tea", "osm_id": 1559417213 }, "geometry": { "type": "Polygon", "coordinates": [ [ [ 35.2699871, -0.3834008 ], [ 35.2700229, -0.3834484 ], [ 35.2699502, -0.3835331 ], [ 35.2699713, -0.3835529 ], [ 35.2699477, -0.3835788 ], [ 35.2699262, -0.3835625 ], [ 35.269897, -0.3835953 ], [ 35.2698905, -0.3836016 ], [ 35.2698419, -0.3835661 ], [ 35.2691737, -0.3843801 ], [ 35.2682247, -0.3855184 ], [ 35.2677441, -0.3861021 ], [ 35.2677015, -0.3861507 ], [ 35.2679322, -0.3861279 ], [ 35.2682215, -0.3860689 ], [ 35.268365, -0.3860421 ], [ 35.2685883, -0.3860119 ], [ 35.2688357, -0.3859851 ], [ 35.2691995, -0.3859515 ], [ 35.2695861, -0.3858885 ], [ 35.2697235, -0.3858456 ], [ 35.2698382, -0.3858094 ], [ 35.2700494, -0.3857195 ], [ 35.2702841, -0.3856049 ], [ 35.2706046, -0.3854278 ], [ 35.2707709, -0.3853051 ], [ 35.2710861, -0.3850497 ], [ 35.2715099, -0.3846983 ], [ 35.272112, -0.384241 ], [ 35.2723078, -0.3841116 ], [ 35.2725063, -0.3839902 ], [ 35.2724218, -0.3838487 ], [ 35.2721808, -0.3835684 ], [ 35.2718163, -0.3831383 ], [ 35.2713974, -0.3826386 ], [ 35.2711662, -0.3823588 ], [ 35.27101, -0.3821707 ], [ 35.2699871, -0.3834008 ] ] ] } },
{ "type": "Feature", "properties": { "tile": "Kericho", "crop": "tea", "osm_id": 1559842935 }, "geometry": { "type": "Polygon", "coordinates": [ [ [ 35.2624735, -0.4010272 ], [ 35.2628115, -0.4006182 ], [ 35.2631924, -0.4001528 ], [ 35.2636215, -0.3996352 ], [ 35.2647454, -0.3982619 ], [ 35.2662058, -0.3995098 ], [ 35.2659309, -0.4005096 ], [ 35.2654695, -0.4021027 ], [ 35.2651262, -0.4032748 ], [ 35.2650055, -0.4032185 ], [ 35.26382, -0.4021913 ], [ 35.2624735, -0.4010272 ] ] ] } },
{ "type": "Feature", "properties": { "tile": "Kericho", "crop": "tea", "osm_id": 1559842936 }, "geometry": { "type": "Polygon", "coordinates": [ [ [ 35.2647802, -0.3982324 ], [ 35.2662098, -0.3994635 ], [ 35.266403, -0.3991631 ], [ 35.2668187, -0.3984818 ], [ 35.2671888, -0.3978784 ], [ 35.2669769, -0.3976745 ], [ 35.2659631, -0.3968055 ], [ 35.2653596, -0.3975216 ], [ 35.2647802, -0.3982324 ] ] ] } },
{ "type": "Feature", "properties": { "tile": "Kericho", "crop": "tea", "osm_id": 1559842937 }, "geometry": { "type": "Polygon", "coordinates": [ [ [ 35.2606657, -0.3947148 ], [ 35.2619076, -0.3957876 ], [ 35.2633694, -0.3970415 ], [ 35.2647293, -0.3981895 ], [ 35.2657163, -0.3970308 ], [ 35.2659148, -0.3967626 ], [ 35.2645683, -0.3956227 ], [ 35.2631146, -0.3943755 ], [ 35.2618432, -0.3932731 ], [ 35.2612102, -0.3940483 ], [ 35.2606657, -0.3947148 ] ] ] } },
{ "type": "Feature", "properties": { "tile": "Kericho", "crop": "tea", "osm_id": 1560869407 }, "geometry": { "type": "Polygon", "coordinates": [ [ [ 35.2471559, -0.3529895 ], [ 35.2478637, -0.3530585 ], [ 35.2481415, -0.3524537 ], [ 35.2479401, -0.3523548 ], [ 35.2479726, -0.3522877 ], [ 35.247749, -0.3521698 ], [ 35.2471559, -0.3529895 ] ] ] } },
{ "type": "Feature", "properties": { "tile": "Kericho", "crop": "tea", "osm_id": 1560869409 }, "geometry": { "type": "Polygon", "coordinates": [ [ [ 35.2496184, -0.351575 ], [ 35.2496168, -0.3517661 ], [ 35.2494166, -0.35184 ], [ 35.2492563, -0.3519232 ], [ 35.2490495, -0.352057 ], [ 35.2488484, -0.3522313 ], [ 35.2485404, -0.3520295 ], [ 35.248384, -0.3519572 ], [ 35.2480034, -0.3517937 ], [ 35.2479076, -0.3517517 ], [ 35.2480626, -0.3515651 ], [ 35.2488761, -0.3515752 ], [ 35.249307, -0.3515786 ], [ 35.2496184, -0.351575 ] ] ] } },
{ "type": "Feature", "properties": { "tile": "Kericho", "crop": "tea", "osm_id": 1560871670 }, "geometry": { "type": "Polygon", "coordinates": [ [ [ 35.262562, -0.3706197 ], [ 35.2629375, -0.3703595 ], [ 35.2626371, -0.3698714 ], [ 35.2627337, -0.3698231 ], [ 35.2629054, -0.3698606 ], [ 35.2630421, -0.3699545 ], [ 35.2632487, -0.3702174 ], [ 35.2634042, -0.3700967 ], [ 35.2635089, -0.3701905 ], [ 35.2635974, -0.3703032 ], [ 35.2636403, -0.3704132 ], [ 35.2636564, -0.3705446 ], [ 35.2636269, -0.3707189 ], [ 35.2635384, -0.3708906 ], [ 35.2634391, -0.3709684 ], [ 35.2633291, -0.3710488 ], [ 35.2631843, -0.3710891 ], [ 35.2630663, -0.3711132 ], [ 35.2629858, -0.3710837 ], [ 35.2628115, -0.370912 ], [ 35.262562, -0.3706197 ] ] ] } },
{ "type": "Feature", "properties": { "tile": "Kericho", "crop": "tea", "osm_id": 1560876117 }, "geometry": { "type": "Polygon", "coordinates": [ [ [ 35.2622831, -0.3728526 ], [ 35.2625272, -0.3728727 ], [ 35.2625915, -0.3730712 ], [ 35.2626613, -0.3735566 ], [ 35.2626787, -0.3738691 ], [ 35.2626733, -0.3739549 ], [ 35.2625687, -0.3739469 ], [ 35.2624735, -0.3739375 ], [ 35.2623501, -0.3739026 ], [ 35.262267, -0.3738785 ], [ 35.2621436, -0.373798 ], [ 35.262212, -0.37333 ], [ 35.2622831, -0.3728526 ] ] ] } },
{ "type": "Feature", "properties": { "tile": "Kericho", "crop": "tea", "osm_id": 1561231586 }, "geometry": { "type": "Polygon", "coordinates": [ [ [ 35.2350895, -0.3923223 ], [ 35.236216, -0.3915995 ], [ 35.2365714, -0.3913473 ], [ 35.2365527, -0.3913178 ], [ 35.2363676, -0.3913326 ], [ 35.2363005, -0.3913768 ], [ 35.2361664, -0.3913822 ], [ 35.2360766, -0.3913822 ], [ 35.2358633, -0.3914278 ], [ 35.235579, -0.3914801 ], [ 35.2353081, -0.3915458 ], [ 35.2349272, -0.3916384 ], [ 35.2349929, -0.3919991 ], [ 35.2350372, -0.392262 ], [ 35.2350774, -0.3923143 ], [ 35.2350895, -0.3923223 ] ] ] } },
{ "type": "Feature", "properties": { "tile": "Kericho", "crop": "tea", "osm_id": 1561231587 }, "geometry": { "type": "Polygon", "coordinates": [ [ [ 35.2377006, -0.3925543 ], [ 35.2376859, -0.3927072 ], [ 35.237478, -0.3927112 ], [ 35.2371655, -0.3926817 ], [ 35.2369644, -0.3926361 ], [ 35.2369496, -0.3925087 ], [ 35.2369308, -0.3922687 ], [ 35.2364427, -0.39227 ], [ 35.2363877, -0.3918382 ], [ 35.2363609, -0.391574 ], [ 35.2366278, -0.3913822 ], [ 35.2368075, -0.3913111 ], [ 35.2370623, -0.391232 ], [ 35.2372661, -0.3911851 ], [ 35.2375464, -0.3911368 ], [ 35.2377757, -0.3910925 ], [ 35.2377409, -0.3917523 ], [ 35.2377006, -0.3925543 ] ] ] } },
{ "type": "Feature", "properties": { "tile": "Kericho", "crop": "tea", "osm_id": 1561231588 }, "geometry": { "type": "Polygon", "coordinates": [ [ [ 35.2394132, -0.3918824 ], [ 35.2397646, -0.3914305 ], [ 35.2399765, -0.3911328 ], [ 35.2398424, -0.3910282 ], [ 35.2400208, -0.3908337 ], [ 35.2401562, -0.3909222 ], [ 35.2402715, -0.3907452 ], [ 35.2398732, -0.3903576 ], [ 35.2397177, -0.3901846 ], [ 35.2396761, -0.3901726 ], [ 35.239542, -0.390241 ], [ 35.2391571, -0.390544 ], [ 35.2389988, -0.3906339 ], [ 35.2388084, -0.3907224 ], [ 35.2386488, -0.3907988 ], [ 35.2388942, -0.391232 ], [ 35.2390364, -0.3914452 ], [ 35.2391624, -0.3916491 ], [ 35.2392443, -0.3917242 ], [ 35.2393395, -0.3918167 ], [ 35.2394132, -0.3918824 ] ] ] } },
{ "type": "Feature", "properties": { "tile": "Kericho", "crop": "tea", "osm_id": 1561231589 }, "geometry": { "type": "Polygon", "coordinates": [ [ [ 35.2351257, -0.3923961 ], [ 35.2354583, -0.3921895 ], [ 35.2357896, -0.3919656 ], [ 35.2363059, -0.3916223 ], [ 35.2363434, -0.3916518 ], [ 35.2363971, -0.3921198 ], [ 35.2364615, -0.3926375 ], [ 35.2364802, -0.392679 ], [ 35.2369778, -0.3926938 ], [ 35.2370314, -0.3927783 ], [ 35.2369764, -0.3930264 ], [ 35.2368879, -0.3934019 ], [ 35.2368799, -0.3935266 ], [ 35.2370006, -0.3935856 ], [ 35.236955, -0.3938256 ], [ 35.2366599, -0.3938619 ], [ 35.2363247, -0.3939852 ], [ 35.2362764, -0.3939611 ], [ 35.2362093, -0.393949 ], [ 35.2359183, -0.3935427 ], [ 35.2355334, -0.3929821 ], [ 35.2351794, -0.3924966 ], [ 35.2351257, -0.3923961 ] ] ] } },
{ "type": "Feature", "properties": { "tile": "Kericho", "crop": "tea", "osm_id": 1561801109 }, "geometry": { "type": "Polygon", "coordinates": [ [ [ 35.2421813, -0.3654069 ], [ 35.2423221, -0.3652312 ], [ 35.2424455, -0.3650582 ], [ 35.2425648, -0.3649121 ], [ 35.2426802, -0.36479 ], [ 35.2429953, -0.365022 ], [ 35.2432287, -0.3651655 ], [ 35.2435264, -0.3653479 ], [ 35.2437088, -0.3654726 ], [ 35.2439408, -0.3656027 ], [ 35.2441446, -0.3657234 ], [ 35.2443552, -0.3655786 ], [ 35.2445604, -0.3653908 ], [ 35.2445832, -0.3653546 ], [ 35.244543, -0.3652996 ], [ 35.2442774, -0.365022 ], [ 35.2444987, -0.3647444 ], [ 35.2448045, -0.3650945 ], [ 35.2449319, -0.3652379 ], [ 35.2448085, -0.3653426 ], [ 35.2448943, -0.3654418 ], [ 35.2450284, -0.3653573 ], [ 35.245121, -0.3654606 ], [ 35.2454495, -0.3652822 ], [ 35.2456775, -0.3655088 ], [ 35.2457057, -0.3655839 ], [ 35.2454402, -0.3657677 ], [ 35.2453221, -0.3658575 ], [ 35.2450606, -0.3660667 ], [ 35.2449641, -0.3661807 ], [ 35.2447709, -0.3664409 ], [ 35.2446704, -0.3665965 ], [ 35.2445751, -0.3665294 ], [ 35.2444196, -0.3664007 ], [ 35.2443203, -0.3663403 ], [ 35.244142, -0.3662572 ], [ 35.2439703, -0.3661955 ], [ 35.2434929, -0.3660332 ], [ 35.2429189, -0.3658683 ], [ 35.2427472, -0.365816 ], [ 35.2426627, -0.3657918 ], [ 35.2425742, -0.3657368 ], [ 35.2423757, -0.3655705 ], [ 35.2421813, -0.3654069 ] ] ] } },
{ "type": "Feature", "properties": { "tile": "Kericho", "crop": "tea", "osm_id": 1561805817 }, "geometry": { "type": "Polygon", "coordinates": [ [ [ 35.239947, -0.3614682 ], [ 35.2403869, -0.3615507 ], [ 35.2404204, -0.3614856 ], [ 35.2404787, -0.3615057 ], [ 35.240574, -0.3613153 ], [ 35.2401119, -0.3611758 ], [ 35.2399363, -0.3614528 ], [ 35.239947, -0.3614682 ] ] ] } },
{ "type": "Feature", "properties": { "tile": "Kericho", "crop": "tea", "osm_id": 1561805818 }, "geometry": { "type": "Polygon", "coordinates": [ [ [ 35.2401803, -0.3611369 ], [ 35.2406014, -0.3612737 ], [ 35.2409099, -0.361381 ], [ 35.2410708, -0.3611651 ], [ 35.2409327, -0.3610699 ], [ 35.2404164, -0.3608097 ], [ 35.2403024, -0.3609425 ], [ 35.240187, -0.3611101 ], [ 35.2401803, -0.3611369 ] ] ] } },
{ "type": "Feature", "properties": { "tile": "Kericho", "crop": "tea", "osm_id": 1561805819 }, "geometry": { "type": "Polygon", "coordinates": [ [ [ 35.2404338, -0.3607815 ], [ 35.2408549, -0.3609988 ], [ 35.2409877, -0.3608285 ], [ 35.2411835, -0.3609452 ], [ 35.2413672, -0.3610887 ], [ 35.2415, -0.3611785 ], [ 35.241559, -0.3611986 ], [ 35.2416757, -0.3610672 ], [ 35.2416515, -0.3610149 ], [ 35.2415268, -0.3608499 ], [ 35.2412277, -0.3604718 ], [ 35.2409622, -0.3601928 ], [ 35.2407812, -0.3603819 ], [ 35.24047, -0.3607252 ], [ 35.2404338, -0.3607815 ] ] ] } },
{ "type": "Feature", "properties": { "tile": "Kericho", "crop": "tea", "osm_id": 1561810339 }, "geometry": { "type": "Polygon", "coordinates": [ [ [ 35.239656, -0.3676814 ], [ 35.2397928, -0.3674306 ], [ 35.2398303, -0.3673716 ], [ 35.2399564, -0.3670229 ], [ 35.2399738, -0.3668486 ], [ 35.2399805, -0.366803 ], [ 35.2401642, -0.366984 ], [ 35.2402621, -0.3671208 ], [ 35.2404526, -0.3673569 ], [ 35.2407342, -0.3676988 ], [ 35.2409475, -0.3680301 ], [ 35.2407289, -0.3682111 ], [ 35.2401763, -0.3676948 ], [ 35.2400744, -0.36779 ], [ 35.2399363, -0.3679509 ], [ 35.2397566, -0.3677833 ], [ 35.239656, -0.3676814 ] ] ] } },
{ "type": "Feature", "properties": { "tile": "Kericho", "crop": "tea", "osm_id": 1561810340 }, "geometry": { "type": "Polygon", "coordinates": [ [ [ 35.2397787, -0.3664805 ], [ 35.2397881, -0.3664255 ], [ 35.2398122, -0.3663826 ], [ 35.2398464, -0.3663376 ], [ 35.2398927, -0.366286 ], [ 35.2399222, -0.3662766 ], [ 35.2399886, -0.3662122 ], [ 35.24001, -0.3661841 ], [ 35.2400263, -0.3661517 ], [ 35.2400677, -0.3661167 ], [ 35.240125, -0.3660892 ], [ 35.2401743, -0.3660694 ], [ 35.2402199, -0.3660413 ], [ 35.2402551, -0.365994 ], [ 35.2402843, -0.3659263 ], [ 35.2403017, -0.3659196 ], [ 35.240349, -0.3659434 ], [ 35.2406175, -0.3662746 ], [ 35.2409461, -0.366748 ], [ 35.2412331, -0.3671329 ], [ 35.2412438, -0.3672013 ], [ 35.2410695, -0.3675071 ], [ 35.2408791, -0.3678222 ], [ 35.2407302, -0.3676103 ], [ 35.2404164, -0.3672026 ], [ 35.2401777, -0.3669049 ], [ 35.2400181, -0.3667198 ], [ 35.2397787, -0.3664805 ] ] ] } },
{ "type": "Feature", "properties": { "tile": "Kericho", "crop": "tea", "osm_id": 1561810341 }, "geometry": { "type": "Polygon", "coordinates": [ [ [ 35.2383631, -0.366052 ], [ 35.2385107, -0.3658911 ], [ 35.238748, -0.3657677 ], [ 35.2388245, -0.3657409 ], [ 35.2389988, -0.3659313 ], [ 35.2391517, -0.3660815 ], [ 35.2393703, -0.366284 ], [ 35.2394561, -0.3663564 ], [ 35.2393542, -0.3665348 ], [ 35.2391638, -0.3667654 ], [ 35.2391101, -0.3668379 ], [ 35.2389827, -0.3667775 ], [ 35.2388956, -0.3667131 ], [ 35.2388741, -0.3666541 ], [ 35.2387574, -0.3665616 ], [ 35.2386501, -0.3664556 ], [ 35.2385683, -0.3663604 ], [ 35.2384745, -0.3662706 ], [ 35.2383819, -0.3661392 ], [ 35.2383631, -0.366052 ] ] ] } },
{ "type": "Feature", "properties": { "tile": "Kericho", "crop": "tea", "osm_id": 1562023014 }, "geometry": { "type": "Polygon", "coordinates": [ [ [ 35.2883649, -0.3977899 ], [ 35.2885821, -0.3979132 ], [ 35.2886975, -0.3979401 ], [ 35.2889013, -0.3980205 ], [ 35.2890998, -0.3981359 ], [ 35.2892688, -0.39827 ], [ 35.2894244, -0.3984872 ], [ 35.2894753, -0.3985784 ], [ 35.2895182, -0.3986669 ], [ 35.2896202, -0.398793 ], [ 35.2897502, -0.3989365 ], [ 35.2898669, -0.399088 ], [ 35.2899528, -0.3991765 ], [ 35.2900346, -0.3992503 ], [ 35.2903014, -0.399371 ], [ 35.2907923, -0.3994984 ], [ 35.2910417, -0.3995359 ], [ 35.291259, -0.3994796 ], [ 35.2914897, -0.3992758 ], [ 35.2915809, -0.3991899 ], [ 35.2917042, -0.399147 ], [ 35.2919671, -0.399147 ], [ 35.292061, -0.3991363 ], [ 35.2920797, -0.3990666 ], [ 35.2919617, -0.3989324 ], [ 35.2912617, -0.398278 ], [ 35.2906796, -0.3977201 ], [ 35.2900198, -0.3970898 ], [ 35.2891856, -0.3962959 ], [ 35.2891132, -0.3964381 ], [ 35.2890167, -0.3966258 ], [ 35.2889067, -0.3967733 ], [ 35.288853, -0.3968323 ], [ 35.2886653, -0.3971113 ], [ 35.2884722, -0.397527 ], [ 35.2883649, -0.3977899 ] ] ] } },
{ "type": "Feature", "properties": { "tile": "Kericho", "crop": "tea", "osm_id": 1562083247 }, "geometry": { "type": "Polygon", "coordinates": [ [ [ 35.2579688, -0.3701919 ], [ 35.2579822, -0.3697681 ], [ 35.2579969, -0.3697011 ], [ 35.2579634, -0.3696434 ], [ 35.2579741, -0.3695817 ], [ 35.2579929, -0.3694677 ], [ 35.2580318, -0.3694583 ], [ 35.2581565, -0.3694382 ], [ 35.2583966, -0.3693913 ], [ 35.2585025, -0.3693644 ], [ 35.2586353, -0.3693215 ], [ 35.2587761, -0.3692746 ], [ 35.2588324, -0.3694288 ], [ 35.2588713, -0.3695562 ], [ 35.2589129, -0.3697145 ], [ 35.2589411, -0.3698472 ], [ 35.2589303, -0.3698861 ], [ 35.2588592, -0.3699331 ], [ 35.2588271, -0.3699894 ], [ 35.258815, -0.3701932 ], [ 35.258819, -0.3703662 ], [ 35.2588056, -0.3703877 ], [ 35.2587493, -0.3703796 ], [ 35.2584811, -0.3703193 ], [ 35.2582262, -0.370267 ], [ 35.2579929, -0.3702174 ], [ 35.2579688, -0.3701919 ] ] ] } },
{ "type": "Feature", "properties": { "tile": "Mwea", "crop": "rice", "osm_id": 1500223621 }, "geometry": { "type": "Polygon", "coordinates": [ [ [ 37.3274388, -0.7125782 ], [ 37.3280235, -0.7116851 ], [ 37.3279859, -0.7115885 ], [ 37.3241834, -0.6996178 ], [ 37.3218566, -0.7003708 ], [ 37.3250286, -0.7102614 ], [ 37.3274388, -0.7125782 ] ] ] } },
{ "type": "Feature", "properties": { "tile": "Mwea", "crop": "rice", "osm_id": 1500223622 }, "geometry": { "type": "Polygon", "coordinates": [ [ [ 37.328095, -0.7115295 ], [ 37.3297901, -0.7088475 ], [ 37.3297365, -0.7088019 ], [ 37.3262937, -0.6979071 ], [ 37.3244699, -0.6995278 ], [ 37.3242664, -0.6995985 ], [ 37.328095, -0.7115295 ] ] ] } },
{ "type": "Feature", "properties": { "tile": "Mwea", "crop": "rice", "osm_id": 1500223623 }, "geometry": { "type": "Polygon", "coordinates": [ [ [ 37.3298585, -0.7086337 ], [ 37.329816, -0.7086178 ], [ 37.3263732, -0.6978747 ], [ 37.3281864, -0.6962749 ], [ 37.3282769, -0.6963404 ], [ 37.3313813, -0.7061049 ], [ 37.3298585, -0.7086337 ] ] ] } },
{ "type": "Feature", "properties": { "tile": "Mwea", "crop": "rice", "osm_id": 1500223625 }, "geometry": { "type": "Polygon", "coordinates": [ [ [ 37.3312705, -0.704535 ], [ 37.331864, -0.7044252 ], [ 37.3322787, -0.7041041 ], [ 37.3327097, -0.704035 ], [ 37.3381715, -0.6951523 ], [ 37.3383464, -0.6937824 ], [ 37.338253, -0.6922945 ], [ 37.3371755, -0.6922417 ], [ 37.3370259, -0.6921691 ], [ 37.3329138, -0.6874157 ], [ 37.3274038, -0.6921266 ], [ 37.3291101, -0.6975654 ], [ 37.3312705, -0.704535 ] ] ] } }
]
}
